{"type": "FeatureCollection", "features": [ {"type": "Feature", "properties": {"norad_id": 29986, "name": "FENGYUN 1C DEB", "group": "fengyun-1c-debris", "lat": 26.97446156114533, "lon": 56.72005840856908, "alt_km": 782.5373297396745, "timestamp": "2025-12-19T08:58:49.611199+00:00", "meta": {"OBJECT_NAME": "FENGYUN 1C DEB", "OBJECT_ID": "1999-025LL", "EPOCH": "2025-12-18T18:19:59.055744", "MEAN_MOTION": 14.29262998, "ECCENTRICITY": 0.00227753, "INCLINATION": 99.3987, "RA_OF_ASC_NODE": 60.8983, "ARG_OF_PERICENTER": 339.2286, "MEAN_ANOMALY": 149.5443, "EPHEMERIS_TYPE": 0, "CLASSIFICATION_TYPE": "U", "NORAD_CAT_ID": 29986, "ELEMENT_SET_NO": 999, "REV_AT_EPOCH": 97593, "BSTAR": 0.0012031347, "MEAN_MOTION_DOT": 3.018e-05, "MEAN_MOTION_DDOT": 0}, "tle": {"line1": "1 29986U 99025LL  25352.76387796  .00003018  00000+0  12031-2 0  9999", "line2": "2 29986  99.3987  60.8983 0022775 339.2286 149.5443 14.29262998975936"}}, "geometry": {"type": "Point", "coordinates": [56.72005840856908, 26.97446156114533]}}, {"type": "Feature", "properties": {"norad_id": 29987, "name": "FENGYUN 1C DEB", "group": "fengyun-1c-debris", "lat": -7.067811281967156, "lon": -113.55124231918101, "alt_km": 890.037603392756, "timestamp": "2025-12-19T08:58:49.611209+00:00", "meta": {"OBJECT_NAME": "FENGYUN 1C DEB", "OBJECT_ID": "1999-025LM", "EPOCH": "2025-12-18T16:10:42.940704", "MEAN_MOTION": 14.14594123, "ECCENTRICITY": 0.00789691, "INCLINATION": 98.8983, "RA_OF_ASC_NODE": 244.6382, "ARG_OF_PERICENTER": 216.3532, "MEAN_ANOMALY": 172.8201, "EPHEMERIS_TYPE": 0, "CLASSIFICATION_TYPE": "U", "NORAD_CAT_ID": 29987, "ELEMENT_SET_NO": 999, "REV_AT_EPOCH": 96457, "BSTAR": 0.0016897758, "MEAN_MOTION_DOT": 3.301e-05, "MEAN_MOTION_DDOT": 0}, "tle": {"line1": "1 29987U 99025LM  25352.67410811  .00003301  00000+0  16898-2 0  9995", "line2": "2 29987  98.8983 244.6382 0078969 216.3532 172.8201 14.14594123964578"}}, "geometry": {"type": "Point", "coordinates": [-113.55124231918101, -7.067811281967156]}}, {"type": "Feature", "properties": {"norad_id": 29988, "name": "FENGYUN 1C DEB", "group": "fengyun-1c-debris", "lat": 29.17251273109555, "lon": -77.60264212269985, "alt_km": 798.0657057154913, "timestamp": "2025-12-19T08:58:49.611218+00:00", "meta": {"OBJECT_NAME": "FENGYUN 1C DEB", "OBJECT_ID": "1999-025LN", "EPOCH": "2025-12-18T21:13:32.566944", "MEAN_MOTION": 14.50455503, "ECCENTRICITY": 0.01202145, "INCLINATION": 98.6959, "RA_OF_ASC_NODE": 96.9903, "ARG_OF_PERICENTER": 359.5931, "MEAN_ANOMALY": 114.1383, "EPHEMERIS_TYPE": 0, "CLASSIFICATION_TYPE": "U", "NORAD_CAT_ID": 29988, "ELEMENT_SET_NO": 999, "REV_AT_EPOCH": 98156, "BSTAR": 0.00108009, "MEAN_MOTION_DOT": 4.583e-05, "MEAN_MOTION_DDOT": 0}, "tle": {"line1": "1 29988U 99025LN  25352.88440471  .00004583  00000+0  10801-2 0  9995", "line2": "2 29988  98.6959  96.9903 0120214 359.5931 114.1383 14.50455503981567"}}, "geometry": {"type": "Point", "coordinates": [-77.60264212269985, 29.17251273109555]}}, {"type": "Feature", "properties": {"norad_id": 29989, "name": "FENGYUN 1C DEB", "group": "fengyun-1c-debris", "lat": -36.750665490792976, "lon": -21.473637439416706, "alt_km": 919.612361976725, "timestamp": "2025-12-19T08:58:49.611229+00:00", "meta": {"OBJECT_NAME": "FENGYUN 1C DEB", "OBJECT_ID": "1999-025LP", "EPOCH": "2025-12-18T21:25:38.091936", "MEAN_MOTION": 14.15822831, "ECCENTRICITY": 0.01235431, "INCLINATION": 98.6682, "RA_OF_ASC_NODE": 331.5168, "ARG_OF_PERICENTER": 177.9926, "MEAN_ANOMALY": 211.8523, "EPHEMERIS_TYPE": 0, "CLASSIFICATION_TYPE": "U", "NORAD_CAT_ID": 29989, "ELEMENT_SET_NO": 999, "REV_AT_EPOCH": 97698, "BSTAR": 0.00010688194, "MEAN_MOTION_DOT": 1.84e-06, "MEAN_MOTION_DDOT": 0}, "tle": {"line1": "1 29989U 99025LP  25352.89280199  .00000184  00000+0  10688-3 0  9993", "line2": "2 29989  98.6682 331.5168 0123543 177.9926 211.8523 14.15822831976980"}}, "geometry": {"type": "Point", "coordinates": [-21.473637439416706, -36.750665490792976]}}, {"type": "Feature", "properties": {"norad_id": 29992, "name": "FENGYUN 1C DEB", "group": "fengyun-1c-debris", "lat": 79.35782823837062, "lon": -66.5284444302624, "alt_km": 818.700608760475, "timestamp": "2025-12-19T08:58:49.611239+00:00", "meta": {"OBJECT_NAME": "FENGYUN 1C DEB", "OBJECT_ID": "1999-025LS", "EPOCH": "2025-12-18T22:40:24.702240", "MEAN_MOTION": 14.11613789, "ECCENTRICITY": 0.00891743, "INCLINATION": 98.7301, "RA_OF_ASC_NODE": 347.9115, "ARG_OF_PERICENTER": 150.0927, "MEAN_ANOMALY": 273.5506, "EPHEMERIS_TYPE": 0, "CLASSIFICATION_TYPE": "U", "NORAD_CAT_ID": 29992, "ELEMENT_SET_NO": 999, "REV_AT_EPOCH": 97475, "BSTAR": 9.1529213e-05, "MEAN_MOTION_DOT": 1.3e-06, "MEAN_MOTION_DDOT": 0}, "tle": {"line1": "1 29992U 99025LS  25352.94473035  .00000130  00000+0  91529-4 0  9991", "line2": "2 29992  98.7301 347.9115 0089174 150.0927 273.5506 14.11613789974755"}}, "geometry": {"type": "Point", "coordinates": [-66.5284444302624, 79.35782823837062]}}, {"type": "Feature", "properties": {"norad_id": 29993, "name": "FENGYUN 1C DEB", "group": "fengyun-1c-debris", "lat": -34.878333741804965, "lon": 36.130334495948105, "alt_km": 847.6275184179276, "timestamp": "2025-12-19T08:58:49.611249+00:00", "meta": {"OBJECT_NAME": "FENGYUN 1C DEB", "OBJECT_ID": "1999-025LT", "EPOCH": "2025-12-18T22:54:55.041408", "MEAN_MOTION": 14.08150667, "ECCENTRICITY": 0.00382976, "INCLINATION": 98.7925, "RA_OF_ASC_NODE": 29.5285, "ARG_OF_PERICENTER": 296.791, "MEAN_ANOMALY": 62.9345, "EPHEMERIS_TYPE": 0, "CLASSIFICATION_TYPE": "U", "NORAD_CAT_ID": 29993, "ELEMENT_SET_NO": 999, "REV_AT_EPOCH": 97257, "BSTAR": 0.00013487634, "MEAN_MOTION_DOT": 1.88e-06, "MEAN_MOTION_DDOT": 0}, "tle": {"line1": "1 29993U 99025LT  25352.95480372  .00000188  00000+0  13488-3 0  9995", "line2": "2 29993  98.7925  29.5285 0038297 296.7910  62.9345 14.08150667972575"}}, "geometry": {"type": "Point", "coordinates": [36.130334495948105, -34.878333741804965]}}, {"type": "Feature", "properties": {"norad_id": 29994, "name": "FENGYUN 1C DEB", "group": "fengyun-1c-debris", "lat": 54.845194612049816, "lon": -141.8324607469025, "alt_km": 847.5305889174224, "timestamp": "2025-12-19T08:58:49.611259+00:00", "meta": {"OBJECT_NAME": "FENGYUN 1C DEB", "OBJECT_ID": "1999-025LU", "EPOCH": "2025-12-18T15:48:26.881344", "MEAN_MOTION": 14.02645287, "ECCENTRICITY": 0.0129724, "INCLINATION": 98.828, "RA_OF_ASC_NODE": 24.7254, "ARG_OF_PERICENTER": 197.0375, "MEAN_ANOMALY": 277.3252, "EPHEMERIS_TYPE": 0, "CLASSIFICATION_TYPE": "U", "NORAD_CAT_ID": 29994, "ELEMENT_SET_NO": 999, "REV_AT_EPOCH": 96809, "BSTAR": -1.3715956e-05, "MEAN_MOTION_DOT": -6.6e-07, "MEAN_MOTION_DDOT": 0}, "tle": {"line1": "1 29994U 99025LU  25352.65864446 -.00000066  00000+0 -13716-4 0  9993", "line2": "2 29994  98.8280  24.7254 0129724 197.0375 277.3252 14.02645287968090"}}, "geometry": {"type": "Point", "coordinates": [-141.8324607469025, 54.845194612049816]}}, {"type": "Feature", "properties": {"norad_id": 29996, "name": "FENGYUN 1C DEB", "group": "fengyun-1c-debris", "lat": 68.23964526663947, "lon": -124.78401281726288, "alt_km": 781.537926135873, "timestamp": "2025-12-19T08:58:49.611269+00:00", "meta": {"OBJECT_NAME": "FENGYUN 1C DEB", "OBJECT_ID": "1999-025LW", "EPOCH": "2025-12-18T14:26:04.605216", "MEAN_MOTION": 14.09455864, "ECCENTRICITY": 0.01311877, "INCLINATION": 99.3031, "RA_OF_ASC_NODE": 30.1728, "ARG_OF_PERICENTER": 71.6027, "MEAN_ANOMALY": 78.3668, "EPHEMERIS_TYPE": 0, "CLASSIFICATION_TYPE": "U", "NORAD_CAT_ID": 29996, "ELEMENT_SET_NO": 999, "REV_AT_EPOCH": 96219, "BSTAR": 0.0013038234, "MEAN_MOTION_DOT": 2.42e-05, "MEAN_MOTION_DDOT": 0}, "tle": {"line1": "1 29996U 99025LW  25352.60144219  .00002420  00000+0  13038-2 0  9998", "line2": "2 29996  99.3031  30.1728 0131187  71.6027  78.3668 14.09455864962198"}}, "geometry": {"type": "Point", "coordinates": [-124.78401281726288, 68.23964526663947]}}, {"type": "Feature", "properties": {"norad_id": 29997, "name": "FENGYUN 1C DEB", "group": "fengyun-1c-debris", "lat": -78.41339870087519, "lon": 53.34048443618815, "alt_km": 848.1488044312091, "timestamp": "2025-12-19T08:58:49.611279+00:00", "meta": {"OBJECT_NAME": "FENGYUN 1C DEB", "OBJECT_ID": "1999-025LX", "EPOCH": "2025-12-18T23:09:28.212768", "MEAN_MOTION": 14.00893207, "ECCENTRICITY": 0.00801734, "INCLINATION": 98.882, "RA_OF_ASC_NODE": 3.2407, "ARG_OF_PERICENTER": 310.0414, "MEAN_ANOMALY": 64.9874, "EPHEMERIS_TYPE": 0, "CLASSIFICATION_TYPE": "U", "NORAD_CAT_ID": 29997, "ELEMENT_SET_NO": 999, "REV_AT_EPOCH": 96477, "BSTAR": 0.00072020101, "MEAN_MOTION_DOT": 1.063e-05, "MEAN_MOTION_DDOT": 0}, "tle": {"line1": "1 29997U 99025LX  25352.96490987  .00001063  00000+0  72020-3 0  9993", "line2": "2 29997  98.8820   3.2407 0080173 310.0414  64.9874 14.00893207964776"}}, "geometry": {"type": "Point", "coordinates": [53.34048443618815, -78.41339870087519]}}, {"type": "Feature", "properties": {"norad_id": 29998, "name": "FENGYUN 1C DEB", "group": "fengyun-1c-debris", "lat": 69.06717202375036, "lon": -100.40938987056943, "alt_km": 793.2823165387163, "timestamp": "2025-12-19T08:58:49.611289+00:00", "meta": {"OBJECT_NAME": "FENGYUN 1C DEB", "OBJECT_ID": "1999-025LY", "EPOCH": "2025-12-18T15:39:47.892096", "MEAN_MOTION": 14.28570092, "ECCENTRICITY": 0.00050152, "INCLINATION": 99.3061, "RA_OF_ASC_NODE": 53.4391, "ARG_OF_PERICENTER": 279.6889, "MEAN_ANOMALY": 80.3724, "EPHEMERIS_TYPE": 0, "CLASSIFICATION_TYPE": "U", "NORAD_CAT_ID": 29998, "ELEMENT_SET_NO": 999, "REV_AT_EPOCH": 97959, "BSTAR": 0.00069326326, "MEAN_MOTION_DOT": 1.69e-05, "MEAN_MOTION_DDOT": 0}, "tle": {"line1": "1 29998U 99025LY  25352.65263764  .00001690  00000+0  69326-3 0  9992", "line2": "2 29998  99.3061  53.4391 0005015 279.6889  80.3724 14.28570092979593"}}, "geometry": {"type": "Point", "coordinates": [-100.40938987056943, 69.06717202375036]}}]}